{"type": "FeatureCollection", "features": [ {"type": "Feature", "properties": {"norad_id": 66579, "name": "STARLINK-35868", "group": "last-30-days", "lat": -4.568740887905793, "lon": 93.7210248222614, "alt_km": 414.43512016380646, "timestamp": "2025-12-16T13:52:36.286447+00:00", "meta": {"OBJECT_NAME": "STARLINK-35868", "OBJECT_ID": "2025-268Y", "EPOCH": "2025-12-15T16:15:47.994048", "MEAN_MOTION": 15.506111, "ECCENTRICITY": 0.00027861, "INCLINATION": 43.0018, "RA_OF_ASC_NODE": 103.9094, "ARG_OF_PERICENTER": 274.4238, "MEAN_ANOMALY": 85.6304, "EPHEMERIS_TYPE": 0, "CLASSIFICATION_TYPE": "U", "NORAD_CAT_ID": 66579, "ELEMENT_SET_NO": 999, "REV_AT_EPOCH": 508, "BSTAR": 0.00097196041, "MEAN_MOTION_DOT": 0.00057166, "MEAN_MOTION_DDOT": 0}, "tle": {"line1": "1 66579U 25268Y   25349.67763882  .00057166  00000+0  97196-3 0  9995", "line2": "2 66579  43.0018 103.9094 0002786 274.4238  85.6304 15.50611100  5089"}}, "geometry": {"type": "Point", "coordinates": [93.7210248222614, -4.568740887905793]}}, {"type": "Feature", "properties": {"norad_id": 66580, "name": "STARLINK-35872", "group": "last-30-days", "lat": -3.0446573359429956, "lon": 95.36398798202113, "alt_km": 413.4988753342559, "timestamp": "2025-12-16T13:52:36.286457+00:00", "meta": {"OBJECT_NAME": "STARLINK-35872", "OBJECT_ID": "2025-268Z", "EPOCH": "2025-12-15T16:15:17.063712", "MEAN_MOTION": 15.50657233, "ECCENTRICITY": 0.00031097, "INCLINATION": 43.0018, "RA_OF_ASC_NODE": 103.908, "ARG_OF_PERICENTER": 288.2619, "MEAN_ANOMALY": 71.7903, "EPHEMERIS_TYPE": 0, "CLASSIFICATION_TYPE": "U", "NORAD_CAT_ID": 66580, "ELEMENT_SET_NO": 999, "REV_AT_EPOCH": 508, "BSTAR": 0.0015013042, "MEAN_MOTION_DOT": 0.00088997, "MEAN_MOTION_DDOT": 0}, "tle": {"line1": "1 66580U 25268Z   25349.67728083  .00088997  00000+0  15013-2 0  9994", "line2": "2 66580  43.0018 103.9080 0003109 288.2619  71.7903 15.50657233  5080"}}, "geometry": {"type": "Point", "coordinates": [95.36398798202113, -3.0446573359429956]}}, {"type": "Feature", "properties": {"norad_id": 66581, "name": "STARLINK-35744", "group": "last-30-days", "lat": -1.916917345771849, "lon": 96.5724942285778, "alt_km": 414.4397403896064, "timestamp": "2025-12-16T13:52:36.286467+00:00", "meta": {"OBJECT_NAME": "STARLINK-35744", "OBJECT_ID": "2025-268AA", "EPOCH": "2025-12-15T16:14:48.883488", "MEAN_MOTION": 15.50610189, "ECCENTRICITY": 0.00021395, "INCLINATION": 43.0006, "RA_OF_ASC_NODE": 103.9044, "ARG_OF_PERICENTER": 264.612, "MEAN_ANOMALY": 95.4496, "EPHEMERIS_TYPE": 0, "CLASSIFICATION_TYPE": "U", "NORAD_CAT_ID": 66581, "ELEMENT_SET_NO": 999, "REV_AT_EPOCH": 508, "BSTAR": 0.0014048251, "MEAN_MOTION_DOT": 0.00083047, "MEAN_MOTION_DDOT": 0}, "tle": {"line1": "1 66581U 25268AA  25349.67695467  .00083047  00000+0  14048-2 0  9992", "line2": "2 66581  43.0006 103.9044 0002139 264.6120  95.4496 15.50610189  5084"}}, "geometry": {"type": "Point", "coordinates": [96.5724942285778, -1.916917345771849]}}, {"type": "Feature", "properties": {"norad_id": 66582, "name": "STARLINK-35746", "group": "last-30-days", "lat": -0.43420539768153193, "lon": 98.16051784083943, "alt_km": 413.98917937554415, "timestamp": "2025-12-16T13:52:36.286478+00:00", "meta": {"OBJECT_NAME": "STARLINK-35746", "OBJECT_ID": "2025-268AB", "EPOCH": "2025-12-15T16:14:18.019680", "MEAN_MOTION": 15.50668046, "ECCENTRICITY": 0.00017067, "INCLINATION": 42.998, "RA_OF_ASC_NODE": 103.9029, "ARG_OF_PERICENTER": 273.2924, "MEAN_ANOMALY": 86.7741, "EPHEMERIS_TYPE": 0, "CLASSIFICATION_TYPE": "U", "NORAD_CAT_ID": 66582, "ELEMENT_SET_NO": 999, "REV_AT_EPOCH": 508, "BSTAR": 0.0013429781, "MEAN_MOTION_DOT": 0.00079502, "MEAN_MOTION_DDOT": 0}, "tle": {"line1": "1 66582U 25268AB  25349.67659745  .00079502  00000+0  13430-2 0  9997", "line2": "2 66582  42.9980 103.9029 0001706 273.2924  86.7741 15.50668046  5085"}}, "geometry": {"type": "Point", "coordinates": [98.16051784083943, -0.43420539768153193]}}, {"type": "Feature", "properties": {"norad_id": 66583, "name": "STARLINK-35941", "group": "last-30-days", "lat": 0.658817603096457, "lon": 99.32843525076278, "alt_km": 414.33620389753287, "timestamp": "2025-12-16T13:52:36.286491+00:00", "meta": {"OBJECT_NAME": "STARLINK-35941", "OBJECT_ID": "2025-268AC", "EPOCH": "2025-12-15T16:13:49.731456", "MEAN_MOTION": 15.50600586, "ECCENTRICITY": 0.00020242, "INCLINATION": 43.0008, "RA_OF_ASC_NODE": 103.8989, "ARG_OF_PERICENTER": 261.3584, "MEAN_ANOMALY": 98.7047, "EPHEMERIS_TYPE": 0, "CLASSIFICATION_TYPE": "U", "NORAD_CAT_ID": 66583, "ELEMENT_SET_NO": 999, "REV_AT_EPOCH": 508, "BSTAR": 0.0013063491, "MEAN_MOTION_DOT": 0.00077115, "MEAN_MOTION_DDOT": 0}, "tle": {"line1": "1 66583U 25268AC  25349.67627004  .00077115  00000+0  13063-2 0  9991", "line2": "2 66583  43.0008 103.8989 0002024 261.3584  98.7047 15.50600586  5084"}}, "geometry": {"type": "Point", "coordinates": [99.32843525076278, 0.658817603096457]}}, {"type": "Feature", "properties": {"norad_id": 66584, "name": "STARLINK-35939", "group": "last-30-days", "lat": 1.9985776594580955, "lon": 100.76341796982358, "alt_km": 413.6505897445659, "timestamp": "2025-12-16T13:52:36.286501+00:00", "meta": {"OBJECT_NAME": "STARLINK-35939", "OBJECT_ID": "2025-268AD", "EPOCH": "2025-12-15T16:13:20.006400", "MEAN_MOTION": 15.50617474, "ECCENTRICITY": 0.00025608, "INCLINATION": 42.9983, "RA_OF_ASC_NODE": 103.897, "ARG_OF_PERICENTER": 280.3061, "MEAN_ANOMALY": 79.751, "EPHEMERIS_TYPE": 0, "CLASSIFICATION_TYPE": "U", "NORAD_CAT_ID": 66584, "ELEMENT_SET_NO": 999, "REV_AT_EPOCH": 508, "BSTAR": 0.0012332001, "MEAN_MOTION_DOT": 0.00072784, "MEAN_MOTION_DDOT": 0}, "tle": {"line1": "1 66584U 25268AD  25349.67592600  .00072784  00000+0  12332-2 0  9990", "line2": "2 66584  42.9983 103.8970 0002560 280.3061  79.7510 15.50617474  5089"}}, "geometry": {"type": "Point", "coordinates": [100.76341796982358, 1.9985776594580955]}}, {"type": "Feature", "properties": {"norad_id": 66585, "name": "STARLINK-35963", "group": "last-30-days", "lat": 3.2645107471848767, "lon": 102.12199808971621, "alt_km": 413.59624668581546, "timestamp": "2025-12-16T13:52:36.286511+00:00", "meta": {"OBJECT_NAME": "STARLINK-35963", "OBJECT_ID": "2025-268AE", "EPOCH": "2025-12-15T16:12:50.448096", "MEAN_MOTION": 15.50601015, "ECCENTRICITY": 0.00020109, "INCLINATION": 43.0001, "RA_OF_ASC_NODE": 103.8943, "ARG_OF_PERICENTER": 282.8945, "MEAN_ANOMALY": 77.1691, "EPHEMERIS_TYPE": 0, "CLASSIFICATION_TYPE": "U", "NORAD_CAT_ID": 66585, "ELEMENT_SET_NO": 999, "REV_AT_EPOCH": 508, "BSTAR": 0.0012364662, "MEAN_MOTION_DOT": 0.00072934, "MEAN_MOTION_DDOT": 0}, "tle": {"line1": "1 66585U 25268AE  25349.67558389  .00072934  00000+0  12365-2 0  9990", "line2": "2 66585  43.0001 103.8943 0002010 282.8945  77.1691 15.50601015  5087"}}, "geometry": {"type": "Point", "coordinates": [102.12199808971621, 3.2645107471848767]}}, {"type": "Feature", "properties": {"norad_id": 66586, "name": "TJS-21", "group": "last-30-days", "lat": 49.72080076361594, "lon": -54.58611843998349, "alt_km": 27573.873697428837, "timestamp": "2025-12-16T13:52:36.286526+00:00", "meta": {"OBJECT_NAME": "TJS-21", "OBJECT_ID": "2025-269A", "EPOCH": "2025-12-10T17:31:22.184832", "MEAN_MOTION": 2.00567425, "ECCENTRICITY": 0.6805766, "INCLINATION": 63.269, "RA_OF_ASC_NODE": 162.5612, "ARG_OF_PERICENTER": 269.7806, "MEAN_ANOMALY": 18.6565, "EPHEMERIS_TYPE": 0, "CLASSIFICATION_TYPE": "U", "NORAD_CAT_ID": 66586, "ELEMENT_SET_NO": 999, "REV_AT_EPOCH": 39, "BSTAR": -0.044965385, "MEAN_MOTION_DOT": 1.083e-05, "MEAN_MOTION_DDOT": 0}, "tle": {"line1": "1 66586U 25269A   25344.73011788  .00001083  00000+0 -44965-1 0  9999", "line2": "2 66586  63.2690 162.5612 6805766 269.7806  18.6565  2.00567425   392"}}, "geometry": {"type": "Point", "coordinates": [-54.58611843998349, 49.72080076361594]}}, {"type": "Feature", "properties": {"norad_id": 66587, "name": "CZ-3B R/B", "group": "last-30-days", "lat": 50.69196957817221, "lon": -112.81173416852086, "alt_km": 24368.79466836338, "timestamp": "2025-12-16T13:52:36.286541+00:00", "meta": {"OBJECT_NAME": "CZ-3B R/B", "OBJECT_ID": "2025-269B", "EPOCH": "2025-12-12T18:47:24.789120", "MEAN_MOTION": 2.03336189, "ECCENTRICITY": 0.7518951, "INCLINATION": 51.347, "RA_OF_ASC_NODE": 169.6347, "ARG_OF_PERICENTER": 228.7177, "MEAN_ANOMALY": 37.1847, "EPHEMERIS_TYPE": 0, "CLASSIFICATION_TYPE": "U", "NORAD_CAT_ID": 66587, "ELEMENT_SET_NO": 999, "REV_AT_EPOCH": 45, "BSTAR": 0.00096662605, "MEAN_MOTION_DOT": 0.00067576, "MEAN_MOTION_DDOT": 1.09445e-06}, "tle": {"line1": "1 66587U 25269B   25346.78292580  .00067576  10944-5  96663-3 0  9994", "line2": "2 66587  51.3470 169.6347 7518951 228.7177  37.1847  2.03336189   454"}}, "geometry": {"type": "Point", "coordinates": [-112.81173416852086, 50.69196957817221]}}, {"type": "Feature", "properties": {"norad_id": 66588, "name": "STARLINK-36076", "group": "last-30-days", "lat": 42.929319897995065, "lon": -102.72852800322146, "alt_km": 438.2538233672549, "timestamp": "2025-12-16T13:52:36.286555+00:00", "meta": {"OBJECT_NAME": "STARLINK-36076", "OBJECT_ID": "2025-270A", "EPOCH": "2025-12-15T22:00:01.999584", "MEAN_MOTION": 15.40659826, "ECCENTRICITY": 0.00019162, "INCLINATION": 42.9996, "RA_OF_ASC_NODE": 174.4732, "ARG_OF_PERICENTER": 236.5104, "MEAN_ANOMALY": 137.587, "EPHEMERIS_TYPE": 0, "CLASSIFICATION_TYPE": "U", "NORAD_CAT_ID": 66588, "ELEMENT_SET_NO": 999, "REV_AT_EPOCH": 491, "BSTAR": 0.0015749953, "MEAN_MOTION_DOT": 0.00065972, "MEAN_MOTION_DDOT": 0}, "tle": {"line1": "1 66588U 25270A   25349.91668981  .00065972  00000+0  15750-2 0  9998", "line2": "2 66588  42.9996 174.4732 0001916 236.5104 137.5870 15.40659826  4911"}}, "geometry": {"type": "Point", "coordinates": [-102.72852800322146, 42.929319897995065]}}]}